[{"OBJECT_NAME":"HAWK-C","OBJECT_ID":"2018-099AT","EPOCH":"2026-03-09T16:08:34.251360","MEAN_MOTION":15.26407167,"ECCENTRICITY":0.00403625,"INCLINATION":97.4027,"RA_OF_ASC_NODE":122.6817,"ARG_OF_PERICENTER":277.4052,"MEAN_ANOMALY":82.2601,"EPHEMERIS_TYPE":0,"CLASSIFICATION_TYPE":"U","NORAD_CAT_ID":43799,"ELEMENT_SET_NO":999,"REV_AT_EPOCH":39872,"BSTAR":0.00035662773,"MEAN_MOTION_DOT":9.431e-5,"MEAN_MOTION_DDOT":0},{"OBJECT_NAME":"STARLINK-35500","OBJECT_ID":"2025-236H","EPOCH":"2026-03-09T11:32:10.345056","MEAN_MOTION":15.30164158,"ECCENTRICITY":0.00011602,"INCLINATION":53.1593,"RA_OF_ASC_NODE":104.7689,"ARG_OF_PERICENTER":74.6283,"MEAN_ANOMALY":285.4846,"EPHEMERIS_TYPE":0,"CLASSIFICATION_TYPE":"U","NORAD_CAT_ID":66093,"ELEMENT_SET_NO":999,"REV_AT_EPOCH":2291,"BSTAR":0.0010640103,"MEAN_MOTION_DOT":0.00031251,"MEAN_MOTION_DDOT":0}]
